QIANFAN-9               
1 60387U 24140J   25281.28547965  .00000078  00000+0  10191-3 0  9998
2 60387  88.9757 306.1225 0017244  33.6253 326.5988 13.50973194 58498
QIANFAN-10              
1 60388U 24140K   25281.28961817  .00000060  00000+0  74339-4 0  9991
2 60388  88.9765 305.4631 0014928  12.6714 347.4809 13.50970109 58628
QIANFAN-11              
1 60389U 24140L   25281.32660900  .00000062  00000+0  76523-4 0  9995
2 60389  88.9693 306.0951 0015286  34.0562 326.1567 13.50970753 58280
QIANFAN-12              
1 60390U 24140M   25281.27306826  .00000053  00000+0  63645-4 0  9996
2 60390  88.9736 306.1155 0014376  42.3239 317.9018 13.50970924 58402
QIANFAN-13              
1 60391U 24140N   25281.31834969  .00000060  00000+0  74785-4 0  9991
2 60391  88.9745 306.2027 0014268  44.7328 315.4972 13.50971094 58431
QIANFAN-14              
1 60392U 24140P   25281.34295306  .00000049  00000+0  57637-4 0  9995
2 60392  88.9725 306.1117 0017931  43.0908 317.1643 13.50971691 58443
QIANFAN-15              
1 60393U 24140Q   25281.27712529  .00000063  00000+0  79298-4 0  9992
2 60393  88.9750 306.0595 0013332  32.5172 327.6798 13.50975360 58420
QIANFAN-16              
1 60394U 24140R   25281.26492184  .00000053  00000+0  63978-4 0  9991
2 60394  88.9754 306.1789 0015990  47.6059 312.6443 13.50970742 58334
